start=new Date('2023-06-27T00:00:00.000Z').valueOf();
sats=[{"TLE_LINE2":"2 45417  53.0531 278.9580 0001061 103.9392 256.1715 15.06373349180911","RA_OF_ASC_NODE":"278.9580","FILE":"3943204","CLASSIFICATION_TYPE":"U","BSTAR":"-0.00093414000000","EPOCH":"2023-06-26T08:24:48.021984","REF_FRAME":"TEME","DECAY_DATE":null,"MEAN_ANOMALY":"256.1715","NORAD_CAT_ID":"45417","OBJECT_NAME":"STARLINK-1286","ELEMENT_SET_NO":"999","ARG_OF_PERICENTER":"103.9392","PERIOD":"95.594","MEAN_MOTION":"15.06373349","ECCENTRICITY":"0.00010610","APOAPSIS":"548.030","TIME_SYSTEM":"UTC","SEMIMAJOR_AXIS":"6925.430","PERIAPSIS":"546.560","MEAN_MOTION_DOT":"-0.00014158","SITE":"AFETR","CENTER_NAME":"EARTH","LAUNCH_DATE":"2020-03-18","TLE_LINE1":"1 45417U 20019BK  23177.35055581 -.00014158  00000-0 -93414-3 0  9990","REV_AT_EPOCH":"18091","OBJECT_TYPE":"PAYLOAD","RCS_SIZE":"LARGE","COUNTRY_CODE":"US","EPHEMERIS_TYPE":"0","INCLINATION":"53.0531","OBJECT_ID":"2020-019BK","MEAN_MOTION_DDOT":"0.0000000000000","MEAN_ELEMENT_THEORY":"SGP4","GP_ID":"234562948"},{"PERIOD":"93.064","MEAN_MOTION":"15.47325910","MEAN_ANOMALY":"24.7659","NORAD_CAT_ID":"45418","DECAY_DATE":null,"ELEMENT_SET_NO":"999","ARG_OF_PERICENTER":"335.3055","OBJECT_NAME":"STARLINK-1299","REF_FRAME":"TEME","CLASSIFICATION_TYPE":"U","RA_OF_ASC_NODE":"265.9491","TLE_LINE2":"2 45418  52.9815 265.9491 0006077 335.3055  24.7659 15.47325910180788","FILE":"3943651","EPOCH":"2023-06-26T14:42:37.740384","BSTAR":"0.00228620000000","OBJECT_ID":"2020-019BL","INCLINATION":"52.9815","GP_ID":"234573638","MEAN_ELEMENT_THEORY":"SGP4","MEAN_MOTION_DDOT":"0.0000000000000","RCS_SIZE":"LARGE","COUNTRY_CODE":"US","EPHEMERIS_TYPE":"0","REV_AT_EPOCH":"18078","TLE_LINE1":"1 45418U 20019BL  23177.61293681  .00120126  00000-0  22862-2 0  9994","OBJECT_TYPE":"PAYLOAD","LAUNCH_DATE":"2020-03-18","CENTER_NAME":"EARTH","TIME_SYSTEM":"UTC","SEMIMAJOR_AXIS":"6802.689","APOAPSIS":"428.688","ECCENTRICITY":"0.00060770","SITE":"AFETR","PERIAPSIS":"420.420","MEAN_MOTION_DOT":"0.00120126"},{"MEAN_MOTION_DDOT":"0.0000000000000","MEAN_ELEMENT_THEORY":"SGP4","GP_ID":"234566745","INCLINATION":"53.0525","OBJECT_ID":"2020-019BM","EPHEMERIS_TYPE":"0","RCS_SIZE":"LARGE","COUNTRY_CODE":"US","CENTER_NAME":"EARTH","LAUNCH_DATE":"2020-03-18","REV_AT_EPOCH":"18065","TLE_LINE1":"1 45419U 20019BM  23177.34687788  .00007840  00000-0  54496-3 0  9996","OBJECT_TYPE":"PAYLOAD","PERIAPSIS":"546.555","MEAN_MOTION_DOT":"0.00007840","SITE":"AFETR","APOAPSIS":"548.025","ECCENTRICITY":"0.00010610","TIME_SYSTEM":"UTC","SEMIMAJOR_AXIS":"6925.425","PERIOD":"95.594","MEAN_MOTION":"15.06375128","OBJECT_NAME":"STARLINK-1308","ELEMENT_SET_NO":"999","ARG_OF_PERICENTER":"89.3029","DECAY_DATE":null,"NORAD_CAT_ID":"45419","MEAN_ANOMALY":"270.8082","REF_FRAME":"TEME","BSTAR":"0.00054496000000","EPOCH":"2023-06-26T08:19:30.248832","TLE_LINE2":"2 45419  53.0525 278.9761 0001061  89.3029 270.8082 15.06375128180659","FILE":"3943366","RA_OF_ASC_NODE":"278.9761","CLASSIFICATION_TYPE":"U"},{"GP_ID":"234568953","MEAN_ELEMENT_THEORY":"SGP4","MEAN_MOTION_DDOT":"0.0000000000000","OBJECT_ID":"2020-025A","INCLINATION":"53.0518","EPHEMERIS_TYPE":"0","RCS_SIZE":"LARGE","COUNTRY_CODE":"US","REV_AT_EPOCH":"17568","TLE_LINE1":"1 45531U 20025A   23177.38189203  .00002539  00000-0  18934-3 0  9998","OBJECT_TYPE":"PAYLOAD","CENTER_NAME":"EARTH","LAUNCH_DATE":"2020-04-22","SITE":"AFETR","PERIAPSIS":"546.399","MEAN_MOTION_DOT":"0.00002539","SEMIMAJOR_AXIS":"6925.368","TIME_SYSTEM":"UTC","APOAPSIS":"548.067","ECCENTRICITY":"0.00012040","PERIOD":"95.593","MEAN_MOTION":"15.06393752","ARG_OF_PERICENTER":"80.1851","ELEMENT_SET_NO":"999","OBJECT_NAME":"STARLINK-1329","NORAD_CAT_ID":"45531","MEAN_ANOMALY":"279.9274","DECAY_DATE":null,"REF_FRAME":"TEME","EPOCH":"2023-06-26T09:09:55.471392","BSTAR":"0.00018934000000","CLASSIFICATION_TYPE":"U","RA_OF_ASC_NODE":"218.8121","TLE_LINE2":"2 45531  53.0518 218.8121 0001204  80.1851 279.9274 15.06393752175683","FILE":"3943455"},{"EPOCH":"2023-06-26T09:25:50.579328","BSTAR":"0.00002552500000","CLASSIFICATION_TYPE":"U","FILE":"3943156","TLE_LINE2":"2 45532  53.0532 218.7630 0001189  95.0832 265.0293 15.06390964175702","RA_OF_ASC_NODE":"218.7630","REF_FRAME":"TEME","ARG_OF_PERICENTER":"95.0832","ELEMENT_SET_NO":"999","OBJECT_NAME":"STARLINK-1338","NORAD_CAT_ID":"45532","MEAN_ANOMALY":"265.0293","DECAY_DATE":null,"PERIOD":"95.593","MEAN_MOTION":"15.06390964","SITE":"AFETR","PERIAPSIS":"546.418","MEAN_MOTION_DOT":"0.00000099","TIME_SYSTEM":"UTC","SEMIMAJOR_AXIS":"6925.376","APOAPSIS":"548.065","ECCENTRICITY":"0.00011890","TLE_LINE1":"1 45532U 20025B   23177.39294652  .00000099  00000-0  25525-4 0  9999","REV_AT_EPOCH":"17570","OBJECT_TYPE":"PAYLOAD","CENTER_NAME":"EARTH","LAUNCH_DATE":"2020-04-22","EPHEMERIS_TYPE":"0","RCS_SIZE":"LARGE","COUNTRY_CODE":"US","GP_ID":"234561718","MEAN_ELEMENT_THEORY":"SGP4","MEAN_MOTION_DDOT":"0.0000000000000","OBJECT_ID":"2020-025B","INCLINATION":"53.0532"},{"INCLINATION":"53.0527","OBJECT_ID":"2020-025D","MEAN_ELEMENT_THEORY":"SGP4","MEAN_MOTION_DDOT":"0.0000000000000","GP_ID":"234562550","COUNTRY_CODE":"US","RCS_SIZE":"LARGE","EPHEMERIS_TYPE":"0","CENTER_NAME":"EARTH","LAUNCH_DATE":"2020-04-22","OBJECT_TYPE":"PAYLOAD","REV_AT_EPOCH":"17569","TLE_LINE1":"1 45534U 20025D   23177.40400102 -.00001039  00000-0 -50906-4 0  9990","ECCENTRICITY":"0.00010420","APOAPSIS":"547.962","TIME_SYSTEM":"UTC","SEMIMAJOR_AXIS":"6925.375","MEAN_MOTION_DOT":"-0.00001039","PERIAPSIS":"546.519","SITE":"AFETR","MEAN_MOTION":"15.06391225","PERIOD":"95.593","DECAY_DATE":null,"NORAD_CAT_ID":"45534","MEAN_ANOMALY":"267.4750","OBJECT_NAME":"STARLINK-1341","ARG_OF_PERICENTER":"92.6359","ELEMENT_SET_NO":"999","REF_FRAME":"TEME","TLE_LINE2":"2 45534  53.0527 218.7155 0001042  92.6359 267.4750 15.06391225175698","RA_OF_ASC_NODE":"218.7155","FILE":"3943182","CLASSIFICATION_TYPE":"U","BSTAR":"-0.00005090600000","EPOCH":"2023-06-26T09:41:45.688128"},{"REF_FRAME":"TEME","EPOCH":"2023-06-26T13:19:23.104992","BSTAR":"0.00006798200000","CLASSIFICATION_TYPE":"U","TLE_LINE2":"2 45535  53.0525 218.0351 0001020  97.0429 263.0676 15.06394954175726","FILE":"3943456","RA_OF_ASC_NODE":"218.0351","MEAN_MOTION":"15.06394954","PERIOD":"95.592","ARG_OF_PERICENTER":"97.0429","ELEMENT_SET_NO":"999","OBJECT_NAME":"STARLINK-1350","MEAN_ANOMALY":"263.0676","NORAD_CAT_ID":"45535","DECAY_DATE":null,"OBJECT_TYPE":"PAYLOAD","TLE_LINE1":"1 45535U 20025E   23177.55512853  .00000731  00000-0  67982-4 0  9992","REV_AT_EPOCH":"17572","CENTER_NAME":"EARTH","LAUNCH_DATE":"2020-04-22","SITE":"AFETR","MEAN_MOTION_DOT":"0.00000731","PERIAPSIS":"546.523","TIME_SYSTEM":"UTC","SEMIMAJOR_AXIS":"6925.364","ECCENTRICITY":"0.00010200","APOAPSIS":"547.935","GP_ID":"234568971","MEAN_MOTION_DDOT":"0.0000000000000","MEAN_ELEMENT_THEORY":"SGP4","OBJECT_ID":"2020-025E","INCLINATION":"53.0525","EPHEMERIS_TYPE":"0","COUNTRY_CODE":"US","RCS_SIZE":"LARGE"},{"REV_AT_EPOCH":"17565","TLE_LINE1":"1 45536U 20025F   23177.09438639  .00000247  00000-0  35487-4 0  9998","OBJECT_TYPE":"PAYLOAD","CENTER_NAME":"EARTH","LAUNCH_DATE":"2020-04-22","SEMIMAJOR_AXIS":"6925.365","TIME_SYSTEM":"UTC","APOAPSIS":"548.143","ECCENTRICITY":"0.00013180","SITE":"AFETR","PERIAPSIS":"546.317","MEAN_MOTION_DOT":"0.00000247","OBJECT_ID":"2020-025F","INCLINATION":"53.0527","GP_ID":"234554208","MEAN_ELEMENT_THEORY":"SGP4","MEAN_MOTION_DDOT":"0.0000000000000","RCS_SIZE":"LARGE","COUNTRY_CODE":"US","EPHEMERIS_TYPE":"0","REF_FRAME":"TEME","CLASSIFICATION_TYPE":"U","FILE":"3942852","TLE_LINE2":"2 45536  53.0527 220.1053 0001318  89.0418 271.0722 15.06394595175655","RA_OF_ASC_NODE":"220.1053","EPOCH":"2023-06-26T02:15:54.984096","BSTAR":"0.00003548700000","PERIOD":"95.592","MEAN_MOTION":"15.06394595","NORAD_CAT_ID":"45536","MEAN_ANOMALY":"271.0722","DECAY_DATE":null,"ELEMENT_SET_NO":"999","ARG_OF_PERICENTER":"89.0418","OBJECT_NAME":"STARLINK-1352"},{"NORAD_CAT_ID":"45538","MEAN_ANOMALY":"267.7657","DECAY_DATE":null,"ARG_OF_PERICENTER":"92.3479","ELEMENT_SET_NO":"999","OBJECT_NAME":"STARLINK-1362","PERIOD":"95.593","MEAN_MOTION":"15.06392085","CLASSIFICATION_TYPE":"U","FILE":"3942874","TLE_LINE2":"2 45538  53.0527 219.9926 0001278  92.3479 267.7657 15.06392085175652","RA_OF_ASC_NODE":"219.9926","EPOCH":"2023-06-26T02:53:04.217280","BSTAR":"0.00013401000000","REF_FRAME":"TEME","RCS_SIZE":"LARGE","COUNTRY_CODE":"US","EPHEMERIS_TYPE":"0","OBJECT_ID":"2020-025H","INCLINATION":"53.0527","GP_ID":"234555042","MEAN_ELEMENT_THEORY":"SGP4","MEAN_MOTION_DDOT":"0.0000000000000","SEMIMAJOR_AXIS":"6925.373","TIME_SYSTEM":"UTC","APOAPSIS":"548.123","ECCENTRICITY":"0.00012780","SITE":"AFETR","PERIAPSIS":"546.353","MEAN_MOTION_DOT":"0.00001715","REV_AT_EPOCH":"17565","TLE_LINE1":"1 45538U 20025H   23177.12018770  .00001715  00000-0  13401-3 0  9996","OBJECT_TYPE":"PAYLOAD","LAUNCH_DATE":"2020-04-22","CENTER_NAME":"EARTH"},{"INCLINATION":"53.0529","OBJECT_ID":"2020-025K","MEAN_ELEMENT_THEORY":"SGP4","MEAN_MOTION_DDOT":"0.0000000000000","GP_ID":"234562282","RCS_SIZE":"LARGE","COUNTRY_CODE":"US","EPHEMERIS_TYPE":"0","CENTER_NAME":"EARTH","LAUNCH_DATE":"2020-04-22","TLE_LINE1":"1 45540U 20025K   23177.36346311  .00000135  00000-0  27948-4 0  9997","REV_AT_EPOCH":"17569","OBJECT_TYPE":"PAYLOAD","ECCENTRICITY":"0.00014320","APOAPSIS":"548.237","SEMIMAJOR_AXIS":"6925.381","TIME_SYSTEM":"UTC","PERIAPSIS":"546.254","MEAN_MOTION_DOT":"0.00000135","SITE":"AFETR","PERIOD":"95.593","MEAN_MOTION":"15.06389548","DECAY_DATE":null,"NORAD_CAT_ID":"45540","MEAN_ANOMALY":"271.5560","OBJECT_NAME":"STARLINK-1368","ELEMENT_SET_NO":"999","ARG_OF_PERICENTER":"88.5593","REF_FRAME":"TEME","TLE_LINE2":"2 45540  53.0529 218.8980 0001432  88.5593 271.5560 15.06389548175691","FILE":"3943162","RA_OF_ASC_NODE":"218.8980","CLASSIFICATION_TYPE":"U","BSTAR":"0.00002794800000","EPOCH":"2023-06-26T08:43:23.212704"}];
